STARLINK-30794
1 58218U 23170N   26061.16668981  .01833080  00000+0  71229-1 0  9991
2 58218  43.0002 236.0086 0001443 270.8696 205.5951 15.22167515  5726
STARLINK-30306
1 57633U 23122B   26061.16668981  .01985020  00000+0  76540-1 0  9991
2 57633  43.0004 135.0320 0001281 274.7147 164.7043 15.22156364  5516
STARLINK-31156
1 58743U 24005R   26061.16668981  .01979948  00000+0  76722-1 0  9999
2 58743  42.9987 261.7081 0001851 265.8439 301.1905 15.21999730  5768
STARLINK-30263
1 57642U 23122L   26061.16668981  .00913294  00000+0  36405-1 0  9990
2 57642  43.0020 134.5290 0001415 279.5437  13.1856 15.21921860  5764
STARLINK-30525
1 58012U 23153X   26061.16668981  .02055283  00000+0  79685-1 0  9990
2 58012  43.0000 109.2146 0001429 250.1935 316.9374 15.21843189  5717
STARLINK-30381
1 57785U 23134Q   26061.16668981  .01009248  00000+0  40091-1 0  9993
2 57785  43.0002 236.7889 0001428 283.9957 204.7746 15.21757279  5623
STARLINK-30269
1 57528U 23115H   26061.16668981  .01074961  00000+0  43084-1 0  9996
2 57528  43.0010  44.3560 0001340 275.2338 232.5847 15.21733896  5828
STARLINK-31087
1 58597U 23200J   26061.16668981  .01186764  00000+0  47218-1 0  9996
2 58597  43.0005 210.6188 0001507 272.2680 270.5684 15.21704733  5666
STARLINK-30584
1 58089U 23160Q   26061.16668981  .02183801  00000+0  85917-1 0  9995
2 58089  43.0007 120.1806 0001737 225.5266 270.2517 15.21703345  5718
STARLINK-31148
1 58741U 24005P   26061.16668981  .02336519  00000+0  91496-1 0  9994
2 58741  42.9998 261.9058 0001667 243.1558 241.1357 15.21628396  5817
STARLINK-30184
1 57310U 23096W   26061.16668981  .00947080  00000+0  38045-1 0  9994
2 57310  42.9999 236.7863 0001615 257.9226  47.3731 15.21558709  5824
STARLINK-30092
1 57467U 23107L   26061.16668981  .01018451  00000+0  40696-1 0  9997
2 57467  43.0009  18.5709 0001357 294.7579 176.7747 15.21528651  5714
STARLINK-30762
1 58197U 23167Y   26061.16668981  .02077564  00000+0  82615-1 0  9992
2 58197  43.0011 186.0414 0001641 313.9919   7.9558 15.21500632  5770
STARLINK-30252
1 57607U 23119F   26061.16668981  .01121544  00000+0  45109-1 0  9998
2 57607  42.9999 108.9294 0001953 285.9842  85.6563 15.21499018  5769
STARLINK-30824
1 58176U 23167B   26061.16668981  .01290934  00000+0  51593-1 0  9997
2 58176  43.0015 185.8871 0001159 271.0644 124.5642 15.21289010  5828
STARLINK-31096
1 58592U 23200D   26061.16668981  .01247417  00000+0  50038-1 0  9998
2 58592  43.0009 211.5965 0001399 271.1632 219.8608 15.21273015  5815
STARLINK-30472
1 57901U 23146L   26061.16668981  .01779016  00000+0  71223-1 0  9994
2 57901  43.0004 352.9608 0001856 277.1215 287.3261 15.21246233  5815
STARLINK-30574
1 58094U 23160V   26061.16668981  .02107058  00000+0  84318-1 0  9995
2 58094  43.0000 120.0737 0001770 230.7313 308.7868 15.21239532  5760
STARLINK-30204
1 57472U 23107R   26061.16668981  .01012754  00000+0  40849-1 0  9993
2 57472  43.0002  18.4001 0001362 274.2447 268.8519 15.21224287  5820
STARLINK-30429
1 57876U 23144N   26061.16668981  .02072292  00000+0  81755-1 0  9997
2 57876  43.0008 327.6577 0001558 267.5239 218.9379 15.21216838  5719
STARLINK-30089
1 56296U 23056L   26061.16668981  .02009953  00000+0  79599-1 0  9991
2 56296  43.0005 211.5180 0001708 242.5210 253.0144 15.21199696  5713
STARLINK-30546
1 58003U 23153N   26061.16668981  .02361832  00000+0  93647-1 0  9994
2 58003  43.0004 108.9087 0001426 313.6176  26.8672 15.21161086  5728
STARLINK-30340
1 57884U 23144W   26061.16668981  .00970676  00000+0  39408-1 0  9995
2 57884  43.0012 327.1901 0001751 281.1264  40.2816 15.21126649  5761
STARLINK-30396
1 57964U 23151A   26061.16668981  .01062734  00000+0  43409-1 0  9996
2 57964  43.0003  18.6389 0002100 282.6390  97.7069 15.21118185  5816
STARLINK-31042
1 58739U 24005M   26061.16668981  .02097741  00000+0  82930-1 0  9995
2 58739  42.9991 261.9626 0001299 285.3177 166.1511 15.21098322  5766
STARLINK-30309
1 57632U 23122A   26061.16668981  .01190942  00000+0  48386-1 0  9998
2 57632  43.0012 134.9175 0001007 277.8451 211.4066 15.20975339  5826
STARLINK-30282
1 57883U 23144V   26061.16668981  .01181480  00000+0  48326-1 0  9991
2 57883  43.0004 327.0970 0002209 292.5405  72.5369 15.20772349  5762
STARLINK-31101
1 58737U 24005K   26061.16668981  .01952396  00000+0  78532-1 0  9991
2 58737  42.9993 261.9902 0001243 288.8667 153.0774 15.20767267  5715
STARLINK-30942
1 58441U 23183E   26061.16668981  .02301227  00000+0  92601-1 0  9994
2 58441  43.0001  83.4428 0001808 267.9072  14.6649 15.20749321  5628
STARLINK-30408
1 57824U 23138S   26061.16668981  .02033382  00000+0  81609-1 0  9998
2 57824  42.9983 276.0601 0001692 285.4131 116.0603 15.20697934  5410
